OBJECT_NAME,OBJECT_ID,EPOCH,MEAN_MOTION,ECCENTRICITY,INCLINATION,RA_OF_ASC_NODE,ARG_OF_PERICENTER,MEAN_ANOMALY,EPHEMERIS_TYPE,CLASSIFICATION_TYPE,NORAD_CAT_ID,ELEMENT_SET_NO,REV_AT_EPOCH,BSTAR,MEAN_MOTION_DOT,MEAN_MOTION_DDOT
SL-8 R/B,1985-006B,2026-06-28T20:19:12.250848,14.37839253,.00191477,74.0458,56.6087,301.9406,134.5563,0,U,15483,999,17000,.61353482E-4,.159E-5,0
SL-12 R/B(2),1985-042D,2026-06-28T13:38:13.473600,14.22007828,.00368658,71.1064,213.4711,310.7227,162.7568,0,U,15772,999,13015,.60462249E-4,.87E-6,0
SL-14 R/B,1985-069B,2026-06-28T17:55:44.363136,14.86523962,.00187602,82.5274,280.4944,179.7363,180.3867,0,U,15945,999,18933,.44662339E-4,.421E-5,0
SL-16 R/B,1985-097B,2026-06-28T17:12:49.788288,14.16614147,.00052966,71.0034,266.8038,86.0992,28.5168,0,U,16182,999,10295,.85179348E-4,.122E-5,0
SL-14 R/B,1986-006B,2026-06-28T23:05:56.180256,14.86956072,.00746854,82.5269,155.0320,263.6345,95.6362,0,U,16496,999,16574,.48302782E-4,.48E-5,0
COSMOS 1743,1986-034A,2026-06-28T19:54:34.390080,15.68018541,.00046773,82.5280,316.3437,228.0707,132.0156,0,U,16719,999,19761,.43735923E-3,.48632E-3,0
SL-14 R/B,1986-046B,2026-06-28T22:32:39.658560,14.85679172,.00221369,82.4824,335.0694,217.3290,142.6389,0,U,16792,999,14292,.44987685E-4,.416E-5,0
SL-14 R/B,1986-055B,2026-06-28T22:37:13.828224,14.85730513,.00180116,82.5198,22.0797,328.1891,153.4854,0,U,16882,999,13588,.40411231E-4,.376E-5,0
AJISAI (EGS),1986-061A,2026-06-28T22:50:07.973088,12.44516707,.00111575,50.0086,111.2198,210.4592,267.8603,0,U,16908,999,48185,-.16520457E-3,-.121E-5,0
SL-14 R/B,1987-024B,2026-06-28T22:22:32.562048,14.86220878,.00167519,82.5281,348.2094,250.7261,109.2144,0,U,17567,999,10465,.439192E-4,.411E-5,0
COSMOS 1833,1987-027A,2026-06-28T22:19:24.314592,14.13058712,.00232441,70.9205,92.1865,35.5009,324.7653,0,U,17589,999,2603,.17033645E-3,.271E-5,0
SL-16 R/B,1987-027B,2026-06-28T22:23:39.425280,14.17173745,.00068257,71.0034,42.0770,299.6870,60.3574,0,U,17590,999,3110,.13739416E-3,.229E-5,0
SL-14 R/B,1987-038B,2026-06-28T23:37:44.516928,14.85451841,.00199465,82.5003,191.9596,152.5949,207.6323,0,U,17912,999,9575,.38475972E-4,.357E-5,0
COSMOS 1844,1987-041A,2026-06-28T21:59:32.159616,14.14569709,.00322684,70.8970,159.5660,218.3468,141.5360,0,U,17973,999,1931,.15549409E-3,.252E-5,0
SL-14 R/B,1987-055B,2026-06-28T16:08:21.367392,14.85717946,.00208036,82.4987,244.4026,11.0139,349.1528,0,U,18153,999,8641,.36575512E-4,.343E-5,0
COSMOS 1867,1987-060A,2026-06-28T19:11:59.764992,14.31516938,.00167839,65.0117,355.5356,282.1265,77.7939,0,U,18187,999,3584,.14543236E-4,-.62E-6,0
SL-14 R/B,1988-001B,2026-06-28T19:26:24.055296,14.85617040,.00167976,82.5134,90.8396,227.6487,132.3308,0,U,18749,999,5852,.38157677E-4,.355E-5,0
COSMOS 1933,1988-020A,2026-06-28T21:31:37.096032,15.18788393,.00048253,82.5128,140.8389,149.1145,211.0374,0,U,18958,999,6710,.18823151E-3,.3945E-4,0
SL-3 R/B,1988-032B,2026-06-28T21:19:33.756960,15.20922195,.0024771,97.5255,162.9180,202.0876,157.9294,0,U,19046,999,6900,.17609985E-3,.3855E-4,0
SL-16 R/B,1988-039B,2026-06-28T17:55:49.904832,14.19630632,.00215588,71.0128,193.7143,175.5990,184.5329,0,U,19120,999,97414,-.37049752E-4,-.127E-5,0
COSMOS 1953,1988-050A,2026-06-28T17:24:22.219488,15.30131569,.00124505,82.5072,46.3985,91.2894,268.9773,0,U,19210,999,5475,.24253173E-3,.7119E-4,0
SL-8 R/B,1988-053B,2026-06-28T23:38:19.948704,14.38971742,.00192669,74.0478,267.3105,58.2807,114.4148,0,U,19257,999,99260,.63496685E-4,.17E-5,0
COSMOS 1975,1988-093A,2026-06-28T22:21:02.980800,15.29476631,.00123104,82.5185,5.8867,133.2282,226.9989,0,U,19573,999,3640,.26586479E-3,.7645E-4,0
SL-14 R/B,1988-093B,2026-06-28T20:56:05.102592,14.85750094,.00214465,82.5319,297.6745,33.8989,111.3333,0,U,19574,999,1752,.41577216E-4,.387E-5,0
SL-16 R/B,1988-102B,2026-06-28T17:32:00.250944,14.16167952,.00151894,71.0003,277.8502,209.2017,150.8259,0,U,19650,999,94261,.13620498E-3,.222E-5,0
INTERCOSMOS 24,1989-080A,2026-06-28T22:18:32.202432,12.59677976,.11880321,82.6053,32.0038,34.6843,332.6178,0,U,20261,999,68080,.19299639E-3,.679E-5,0
SL-14 R/B,1989-080C,2026-06-28T20:12:32.111712,12.50574910,.12283884,82.5943,101.8202,290.7237,56.6577,0,U,20262,999,67404,.38736225E-4,.129E-5,0
DELTA 1 R/B,1989-089B,2026-06-28T19:21:40.646880,14.50738202,.00701627,97.0633,9.5056,130.6768,230.0556,0,U,20323,999,91184,.80679002E-4,.293E-5,0
ARIANE 40 R/B,1990-005H,2026-06-28T22:15:08.055648,14.39933173,.00092212,98.2955,237.1781,224.5708,135.4740,0,U,20443,999,90881,.87477328E-4,.233E-5,0
DELTA 2 R/B(1),1990-008B,2026-06-28T22:56:59.623296,15.70675363,.00643318,35.5989,156.8190,225.6640,133.8816,0,U,20453,999,94355,.55675578E-3,.8151E-3,0
