SL-8 R/B                
1 15483U 85006B   26179.84666957  .00000159  00000+0  61353-4 0  9992
2 15483  74.0458  56.6087 0019147 301.9406 134.5563 14.37839253170008
SL-12 R/B(2)            
1 15772U 85042D   26179.56821150  .00000087  00000+0  60462-4 0  9990
2 15772  71.1064 213.4711 0036865 310.7227 162.7568 14.22007828130151
SL-14 R/B               
1 15945U 85069B   26179.74704124  .00000421  00000+0  44662-4 0  9998
2 15945  82.5274 280.4944 0018760 179.7363 180.3867 14.86523962189336
SL-16 R/B               
1 16182U 85097B   26179.71724292  .00000122  00000+0  85179-4 0  9994
2 16182  71.0034 266.8038 0005296  86.0992  28.5168 14.16614147102956
SL-14 R/B               
1 16496U 86006B   26179.96245579  .00000480  00000+0  48303-4 0  9991
2 16496  82.5269 155.0320 0074685 263.6345  95.6362 14.86956072165747
COSMOS 1743             
1 16719U 86034A   26179.82956470  .00048632  00000+0  43736-3 0  9999
2 16719  82.5280 316.3437 0004677 228.0707 132.0156 15.68018541197619
SL-14 R/B               
1 16792U 86046B   26179.93934790  .00000416  00000+0  44988-4 0  9995
2 16792  82.4824 335.0694 0022136 217.3290 142.6389 14.85679172142924
SL-14 R/B               
1 16882U 86055B   26179.94252116  .00000376  00000+0  40411-4 0  9993
2 16882  82.5198  22.0797 0018011 328.1891 153.4854 14.85730513135882
AJISAI (EGS)            
1 16908U 86061A   26179.95148117 -.00000121  00000+0 -16520-3 0  9998
2 16908  50.0086 111.2198 0011157 210.4592 267.8603 12.44516707481851
SL-14 R/B               
1 17567U 87024B   26179.93232132  .00000411  00000+0  43919-4 0  9992
2 17567  82.5281 348.2094 0016751 250.7261 109.2144 14.86220878104650
COSMOS 1833             
1 17589U 87027A   26179.93014253  .00000271  00000+0  17034-3 0  9993
2 17589  70.9205  92.1865 0023244  35.5009 324.7653 14.13058712 26036
SL-16 R/B               
1 17590U 87027B   26179.93309520  .00000229  00000+0  13739-3 0  9990
2 17590  71.0034  42.0770 0006825 299.6870  60.3574 14.17173745 31101
SL-14 R/B               
1 17912U 87038B   26179.98454302  .00000357  00000+0  38476-4 0  9992
2 17912  82.5003 191.9596 0019946 152.5949 207.6323 14.85451841 95754
COSMOS 1844             
1 17973U 87041A   26179.91634444  .00000252  00000+0  15549-3 0  9992
2 17973  70.8970 159.5660 0032268 218.3468 141.5360 14.14569709 19315
SL-14 R/B               
1 18153U 87055B   26179.67246953  .00000343  00000+0  36576-4 0  9990
2 18153  82.4987 244.4026 0020803  11.0139 349.1528 14.85717946 86411
COSMOS 1867             
1 18187U 87060A   26179.79999728 -.00000062  00000+0  14543-4 0  9990
2 18187  65.0117 355.5356 0016783 282.1265  77.7939 14.31516938 35843
SL-14 R/B               
1 18749U 88001B   26179.81000064  .00000355  00000+0  38158-4 0  9991
2 18749  82.5134  90.8396 0016797 227.6487 132.3308 14.85617040 58521
COSMOS 1933             
1 18958U 88020A   26179.89695713  .00003945  00000+0  18823-3 0  9997
2 18958  82.5128 140.8389 0004825 149.1145 211.0374 15.18788393 67101
SL-3 R/B                
1 19046U 88032B   26179.88858515  .00003855  00000+0  17610-3 0  9992
2 19046  97.5255 162.9180 0024771 202.0876 157.9294 15.20922195 69006
SL-16 R/B               
1 19120U 88039B   26179.74710538 -.00000127  00000+0 -37050-4 0  9991
2 19120  71.0128 193.7143 0021558 175.5990 184.5329 14.19630632974141
COSMOS 1953             
1 19210U 88050A   26179.72525717  .00007119  00000+0  24253-3 0  9991
2 19210  82.5072  46.3985 0012450  91.2894 268.9773 15.30131569 54756
SL-8 R/B                
1 19257U 88053B   26179.98495311  .00000170  00000+0  63497-4 0  9993
2 19257  74.0478 267.3105 0019266  58.2807 114.4148 14.38971742992609
COSMOS 1975             
1 19573U 88093A   26179.93128450  .00007645  00000+0  26586-3 0  9991
2 19573  82.5185   5.8867 0012310 133.2282 226.9989 15.29476631 36400
SL-14 R/B               
1 19574U 88093B   26179.87228128  .00000387  00000+0  41577-4 0  9992
2 19574  82.5319 297.6745 0021446  33.8989 111.3333 14.85750094 17526
SL-16 R/B               
1 19650U 88102B   26179.73055846  .00000222  00000+0  13620-3 0  9993
2 19650  71.0003 277.8502 0015189 209.2017 150.8259 14.16167952942614
INTERCOSMOS 24          
1 20261U 89080A   26179.92953938  .00000679  00000+0  19300-3 0  9996
2 20261  82.6053  32.0038 1188032  34.6843 332.6178 12.59677976680805
SL-14 R/B               
1 20262U 89080C   26179.84203833  .00000129  00000+0  38736-4 0  9995
2 20262  82.5943 101.8202 1228388 290.7237  56.6577 12.50574910674042
DELTA 1 R/B             
1 20323U 89089B   26179.80672045  .00000293  00000+0  80679-4 0  9998
2 20323  97.0633   9.5056 0070162 130.6768 230.0556 14.50738202911848
ARIANE 40 R/B           
1 20443U 90005H   26179.92717657  .00000233  00000+0  87477-4 0  9990
2 20443  98.2955 237.1781 0009221 224.5708 135.4740 14.39933173908817
DELTA 2 R/B(1)          
1 20453U 90008B   26179.95624564  .00081510  00000+0  55676-3 0  9993
2 20453  35.5989 156.8190 0064331 225.6640 133.8816 15.70675363943556
